GPS BIIA-10 (PRN 32)    
1 20959U 90103A   15046.67351132  .00000041  00000-0  00000+0 0  9996
2 20959  54.2698 199.1668 0113185   0.0642 359.9021  2.00574874177407
GPS BIIA-23 (PRN 04)    
1 22877U 93068A   15047.10222014 -.00000012  00000-0  00000+0 0  9994
2 22877  53.8274 133.6286 0108442  59.5746 302.9999  2.00556928156135
GPS BIIA-26 (PRN 10)    
1 23953U 96041A   15047.44909635  .00000027  00000-0  00000+0 0  9997
2 23953  53.9447 194.9431 0143843  52.1820  33.2059  2.00564053136218
GPS BIIR-2  (PRN 13)    
1 24876U 97035A   15047.50821044  .00000063  00000-0  00000+0 0  9990
2 24876  55.8667 260.6947 0051525 119.2954 255.6926  2.00561986128754
GPS BIIA-28 (PRN 08)    
1 25030U 97067A   15047.15781539 -.00000046  00000-0  00000+0 0  9995
2 25030  56.9993 321.8632 0145160 206.6773  47.8221  2.00576804126641
GPS BIIR-3  (PRN 11)    
1 25933U 99055A   15046.60076136 -.00000012  00000-0  10000-3 0  9993
2 25933  51.1305 115.1208 0154083  79.3593 282.4268  2.00556713112559
GPS BIIR-4  (PRN 20)    
1 26360U 00025A   15047.38107291  .00000020  00000-0  00000+0 0  9993
2 26360  53.0819 190.3990 0055907  69.7752 351.2609  2.00318257108258
GPS BIIR-5  (PRN 28)    
1 26407U 00040A   15047.36199160 -.00000044  00000-0  00000+0 0  9993
2 26407  56.6365  18.3403 0199115 264.1928 312.0758  2.00561997106933
GPS BIIR-6  (PRN 14)    
1 26605U 00071A   15047.30210666  .00000065  00000-0  00000+0 0  9998
2 26605  55.4372 258.7592 0079540 247.4707 212.4712  2.00549981104520
GPS BIIR-7  (PRN 18)    
1 26690U 01004A   15047.47352072  .00000023  00000-0  00000+0 0  9999
2 26690  53.0152 193.4142 0159691 246.2007  72.0726  2.00552508102933
GPS BIIR-8  (PRN 16)    
1 27663U 03005A   15047.22658583 -.00000044  00000-0  00000+0 0  9996
2 27663  56.7173  18.0322 0080644  12.2320 223.2494  2.00554730 88281
GPS BIIR-9  (PRN 21)    
1 27704U 03010A   15047.43188862 -.00000011  00000-0  00000+0 0  9993
2 27704  53.4832 133.6130 0224605 248.7136 100.3884  2.00570585 87094
GPS BIIR-10 (PRN 22)    
1 28129U 03058A   15047.05864374  .00000026  00000-0  00000+0 0  9999
2 28129  52.8894 193.5098 0077266 242.1503 104.8680  2.00559611 81780
GPS BIIR-11 (PRN 19)    
1 28190U 04009A   15046.64607954  .00000014  00000-0  00000+0 0  9994
2 28190  55.4900  79.8172 0108778  28.3566  64.7570  2.00560737 79959
GPS BIIR-12 (PRN 23)    
1 28361U 04023A   15047.31049847  .00000065  00000-0  00000+0 0  9992
2 28361  54.3929 254.7421 0098811 205.5990 156.7305  2.00564964 78059
GPS BIIR-13 (PRN 02)    
1 28474U 04045A   15047.40354787 -.00000010  00000-0  00000+0 0  9994
2 28474  53.8825 132.7341 0145612 227.7890 204.0219  2.00551506 75412
GPS BIIRM-1 (PRN 17)    
1 28874U 05038A   15046.36445850  .00000013  00000-0  00000+0 0  9999
2 28874  55.6574  76.9670 0102806 244.0189 265.5879  2.00558188 68792
GPS BIIRM-2 (PRN 31)    
1 29486U 06042A   15047.16323734 -.00000039  00000-0  00000+0 0  9999
2 29486  55.9294 316.2522 0084016 327.1610 319.6110  2.00556605 61529
GPS BIIRM-3 (PRN 12)    
1 29601U 06052A   15047.45200142 -.00000046  00000-0  00000+0 0  9996
2 29601  56.6855  16.9549 0052209  27.2480 148.7658  2.00557368 60449
GPS BIIRM-4 (PRN 15)    
1 32260U 07047A   15046.95848635  .00000067  00000-0  00000+0 0  9997
2 32260  53.5260 251.8522 0070092  19.7883 290.1150  2.00571793 53825
GPS BIIRM-5 (PRN 29)    
1 32384U 07062A   15047.43163481  .00000017  00000-0  00000+0 0  9999
2 32384  55.7049  77.4557 0015036 306.0380 125.2273  2.00577989 52569
GPS BIIRM-6 (PRN 07)    
1 32711U 08012A   15046.93145336 -.00000039  00000-0  00000+0 0  9997
2 32711  55.6498 315.8432 0080879 204.1918 155.4716  2.00556407 50751
GPS BIIRM-8 (PRN 05)    
1 35752U 09043A   15047.44814862  .00000026  00000-0  00000+0 0  9999
2 35752  54.2431 194.0447 0039430  20.7457  14.7022  2.00550938 40345
GPS BIIF-1  (PRN 25)    
1 36585U 10022A   15047.54932178 -.00000051  00000-0  00000+0 0  9994
2 36585  56.0302  14.3463 0041055  35.2343 179.3794  2.00558558 34590
GPS BIIF-2  (PRN 01)    
1 37753U 11036A   15047.11171088 -.00000011  00000-0  00000+0 0  9992
2 37753  55.1084 134.7726 0038050  19.7772 323.8239  2.00563803 26251
GPS BIIF-3  (PRN 24)    
1 38833U 12053A   15047.12312602 -.00000036  00000-0  00000+0 0  9999
2 38833  54.6883 313.5919 0030255  12.6446 347.4781  2.00562215 17331
GPS BIIF-4  (PRN 27)    
1 39166U 13023A   15045.47973794  .00000008  00000-0  10000-3 0  9991
2 39166  55.3617  74.3025 0018773   1.1836 358.8884  2.00562271 12822
GPS BIIF-5  (PRN 30)    
1 39533U 14008A   15046.47254806 -.00000046  00000-0  00000+0 0  9998
2 39533  54.8302 318.7691 0010016 180.4798 179.5583  2.00552304  7216
GPS BIIF-6  (PRN 06)    
1 39741U 14026A   15046.25679885 -.00000014  00000-0  00000+0 0  9998
2 39741  55.1038 134.3181 0002893 186.1620 173.8598  2.00561863  5495
GPS BIIF-7  (PRN 09)    
1 40105U 14045A   15046.84651821  .00000070  00000-0  00000+0 0  9991
2 40105  54.9036 254.2170 0002057 184.4326 175.6238  2.00564726  3953
GPS BIIF-8  (PRN 03)    
1 40294U 14068A   15045.22400116  .00000050  00000-0  00000+0 0  9993
2 40294  54.9727 194.4616 0010457 202.4626 157.4706  2.00553484  2143
